{"type": "FeatureCollection", "features": [ {"type": "Feature", "properties": {"norad_id": 35660, "name": "COSMOS 2251 DEB", "group": "cosmos-2251-debris", "lat": -73.979233454974, "lon": 42.75138628577243, "alt_km": 719.7381774793557, "timestamp": "2025-12-15T11:38:37.548431+00:00", "meta": {"OBJECT_NAME": "COSMOS 2251 DEB", "OBJECT_ID": "1993-036APB", "EPOCH": "2025-12-13T02:38:42.179424", "MEAN_MOTION": 14.49930822, "ECCENTRICITY": 0.00184394, "INCLINATION": 74.0397, "RA_OF_ASC_NODE": 132.5343, "ARG_OF_PERICENTER": 281.2013, "MEAN_ANOMALY": 198.4708, "EPHEMERIS_TYPE": 0, "CLASSIFICATION_TYPE": "U", "NORAD_CAT_ID": 35660, "ELEMENT_SET_NO": 999, "REV_AT_EPOCH": 65876, "BSTAR": 0.00075946704, "MEAN_MOTION_DOT": 2.917e-05, "MEAN_MOTION_DDOT": 0}, "tle": {"line1": "1 35660U 93036APB 25347.11021041  .00002917  00000+0  75947-3 0  9995", "line2": "2 35660  74.0397 132.5343 0018439 281.2013 198.4708 14.49930822658766"}}, "geometry": {"type": "Point", "coordinates": [42.75138628577243, -73.979233454974]}}, {"type": "Feature", "properties": {"norad_id": 35661, "name": "COSMOS 2251 DEB", "group": "cosmos-2251-debris", "lat": -73.94524562406954, "lon": -10.735657181466026, "alt_km": 618.7105375770143, "timestamp": "2025-12-15T11:38:37.548441+00:00", "meta": {"OBJECT_NAME": "COSMOS 2251 DEB", "OBJECT_ID": "1993-036APC", "EPOCH": "2025-12-13T00:17:15.706176", "MEAN_MOTION": 14.86576053, "ECCENTRICITY": 0.00878892, "INCLINATION": 74.0136, "RA_OF_ASC_NODE": 79.1868, "ARG_OF_PERICENTER": 183.3454, "MEAN_ANOMALY": 176.7151, "EPHEMERIS_TYPE": 0, "CLASSIFICATION_TYPE": "U", "NORAD_CAT_ID": 35661, "ELEMENT_SET_NO": 999, "REV_AT_EPOCH": 87872, "BSTAR": 0.0013832981, "MEAN_MOTION_DOT": 0.00013144, "MEAN_MOTION_DDOT": 0}, "tle": {"line1": "1 35661U 93036APC 25347.01198734  .00013144  00000+0  13833-2 0  9998", "line2": "2 35661  74.0136  79.1868 0087889 183.3454 176.7151 14.86576053878726"}}, "geometry": {"type": "Point", "coordinates": [-10.735657181466026, -73.94524562406954]}}, {"type": "Feature", "properties": {"norad_id": 35663, "name": "COSMOS 2251 DEB", "group": "cosmos-2251-debris", "lat": -47.664797195804155, "lon": 101.03803209655955, "alt_km": 683.1226220024237, "timestamp": "2025-12-15T11:38:37.548451+00:00", "meta": {"OBJECT_NAME": "COSMOS 2251 DEB", "OBJECT_ID": "1993-036APE", "EPOCH": "2025-12-13T02:32:21.539904", "MEAN_MOTION": 14.65684168, "ECCENTRICITY": 0.00063461, "INCLINATION": 74.0174, "RA_OF_ASC_NODE": 123.959, "ARG_OF_PERICENTER": 198.7091, "MEAN_ANOMALY": 161.3846, "EPHEMERIS_TYPE": 0, "CLASSIFICATION_TYPE": "U", "NORAD_CAT_ID": 35663, "ELEMENT_SET_NO": 999, "REV_AT_EPOCH": 73387, "BSTAR": 0.0025042609, "MEAN_MOTION_DOT": 0.00013628, "MEAN_MOTION_DDOT": 0}, "tle": {"line1": "1 35663U 93036APE 25347.10580486  .00013628  00000+0  25043-2 0  9992", "line2": "2 35663  74.0174 123.9590 0006346 198.7091 161.3846 14.65684168733877"}}, "geometry": {"type": "Point", "coordinates": [101.03803209655955, -47.664797195804155]}}, {"type": "Feature", "properties": {"norad_id": 35667, "name": "COSMOS 2251 DEB", "group": "cosmos-2251-debris", "lat": -54.44892886093638, "lon": 111.29459548218159, "alt_km": 703.5909644690673, "timestamp": "2025-12-15T11:38:37.548460+00:00", "meta": {"OBJECT_NAME": "COSMOS 2251 DEB", "OBJECT_ID": "1993-036APJ", "EPOCH": "2025-12-14T16:10:30.846432", "MEAN_MOTION": 14.60047432, "ECCENTRICITY": 0.00195944, "INCLINATION": 74.0556, "RA_OF_ASC_NODE": 136.4208, "ARG_OF_PERICENTER": 197.4569, "MEAN_ANOMALY": 162.5926, "EPHEMERIS_TYPE": 0, "CLASSIFICATION_TYPE": "U", "NORAD_CAT_ID": 35667, "ELEMENT_SET_NO": 999, "REV_AT_EPOCH": 70831, "BSTAR": 0.0010671241, "MEAN_MOTION_DOT": 5.114e-05, "MEAN_MOTION_DDOT": 0}, "tle": {"line1": "1 35667U 93036APJ 25348.67396813  .00005114  00000+0  10671-2 0  9990", "line2": "2 35667  74.0556 136.4208 0019594 197.4569 162.5926 14.60047432708310"}}, "geometry": {"type": "Point", "coordinates": [111.29459548218159, -54.44892886093638]}}, {"type": "Feature", "properties": {"norad_id": 35668, "name": "COSMOS 2251 DEB", "group": "cosmos-2251-debris", "lat": 73.04588709722188, "lon": -34.53541010941658, "alt_km": 715.0460178730837, "timestamp": "2025-12-15T11:38:37.548470+00:00", "meta": {"OBJECT_NAME": "COSMOS 2251 DEB", "OBJECT_ID": "1993-036APK", "EPOCH": "2025-12-10T09:50:46.743936", "MEAN_MOTION": 14.63977041, "ECCENTRICITY": 0.00831886, "INCLINATION": 74.0449, "RA_OF_ASC_NODE": 224.9926, "ARG_OF_PERICENTER": 330.6481, "MEAN_ANOMALY": 29.0026, "EPHEMERIS_TYPE": 0, "CLASSIFICATION_TYPE": "U", "NORAD_CAT_ID": 35668, "ELEMENT_SET_NO": 999, "REV_AT_EPOCH": 87613, "BSTAR": 0.00039699898, "MEAN_MOTION_DOT": 2.154e-05, "MEAN_MOTION_DDOT": 0}, "tle": {"line1": "1 35668U 93036APK 25344.41026324  .00002154  00000+0  39700-3 0  9992", "line2": "2 35668  74.0449 224.9926 0083188 330.6481  29.0026 14.63977041876131"}}, "geometry": {"type": "Point", "coordinates": [-34.53541010941658, 73.04588709722188]}}, {"type": "Feature", "properties": {"norad_id": 35669, "name": "COSMOS 2251 DEB", "group": "cosmos-2251-debris", "lat": 72.10885835287347, "lon": -88.81648088816806, "alt_km": 1320.5337073384044, "timestamp": "2025-12-15T11:38:37.548479+00:00", "meta": {"OBJECT_NAME": "COSMOS 2251 DEB", "OBJECT_ID": "1993-036APL", "EPOCH": "2025-12-10T17:55:05.054592", "MEAN_MOTION": 13.57151778, "ECCENTRICITY": 0.03880721, "INCLINATION": 73.8635, "RA_OF_ASC_NODE": 162.6479, "ARG_OF_PERICENTER": 274.7966, "MEAN_ANOMALY": 80.8943, "EPHEMERIS_TYPE": 0, "CLASSIFICATION_TYPE": "U", "NORAD_CAT_ID": 35669, "ELEMENT_SET_NO": 999, "REV_AT_EPOCH": 60762, "BSTAR": 0.0012765304, "MEAN_MOTION_DOT": 1.459e-05, "MEAN_MOTION_DDOT": 0}, "tle": {"line1": "1 35669U 93036APL 25344.74658628  .00001459  00000+0  12765-2 0  9995", "line2": "2 35669  73.8635 162.6479 0388072 274.7966  80.8943 13.57151778607625"}}, "geometry": {"type": "Point", "coordinates": [-88.81648088816806, 72.10885835287347]}}, {"type": "Feature", "properties": {"norad_id": 35670, "name": "COSMOS 2251 DEB", "group": "cosmos-2251-debris", "lat": -39.80906106097332, "lon": 44.978294241913005, "alt_km": 578.6698266875228, "timestamp": "2025-12-15T11:38:37.548489+00:00", "meta": {"OBJECT_NAME": "COSMOS 2251 DEB", "OBJECT_ID": "1993-036APM", "EPOCH": "2025-12-14T21:21:55.582560", "MEAN_MOTION": 14.93987644, "ECCENTRICITY": 0.0037863, "INCLINATION": 73.8951, "RA_OF_ASC_NODE": 60.1197, "ARG_OF_PERICENTER": 20.3241, "MEAN_ANOMALY": 339.9438, "EPHEMERIS_TYPE": 0, "CLASSIFICATION_TYPE": "U", "NORAD_CAT_ID": 35670, "ELEMENT_SET_NO": 999, "REV_AT_EPOCH": 87759, "BSTAR": 0.00068268578, "MEAN_MOTION_DOT": 7.347e-05, "MEAN_MOTION_DDOT": 0}, "tle": {"line1": "1 35670U 93036APM 25348.89022665  .00007347  00000+0  68269-3 0  9996", "line2": "2 35670  73.8951  60.1197 0037863  20.3241 339.9438 14.93987644877599"}}, "geometry": {"type": "Point", "coordinates": [44.978294241913005, -39.80906106097332]}}, {"type": "Feature", "properties": {"norad_id": 35671, "name": "COSMOS 2251 DEB", "group": "cosmos-2251-debris", "lat": -49.889355567720195, "lon": 54.28014843496305, "alt_km": 722.6712878469762, "timestamp": "2025-12-15T11:38:37.548499+00:00", "meta": {"OBJECT_NAME": "COSMOS 2251 DEB", "OBJECT_ID": "1993-036APN", "EPOCH": "2025-12-12T06:07:34.704192", "MEAN_MOTION": 14.48347657, "ECCENTRICITY": 0.00414664, "INCLINATION": 74.018, "RA_OF_ASC_NODE": 80.2233, "ARG_OF_PERICENTER": 254.3311, "MEAN_ANOMALY": 138.579, "EPHEMERIS_TYPE": 0, "CLASSIFICATION_TYPE": "U", "NORAD_CAT_ID": 35671, "ELEMENT_SET_NO": 999, "REV_AT_EPOCH": 86756, "BSTAR": 0.00036575096, "MEAN_MOTION_DOT": 1.355e-05, "MEAN_MOTION_DDOT": 0}, "tle": {"line1": "1 35671U 93036APN 25346.25526278  .00001355  00000+0  36575-3 0  9992", "line2": "2 35671  74.0180  80.2233 0041466 254.3311 138.5790 14.48347657867566"}}, "geometry": {"type": "Point", "coordinates": [54.28014843496305, -49.889355567720195]}}, {"type": "Feature", "properties": {"norad_id": 35674, "name": "COSMOS 2251 DEB", "group": "cosmos-2251-debris", "lat": -56.384446369748666, "lon": 156.7893974034453, "alt_km": 747.1111114757223, "timestamp": "2025-12-15T11:38:37.548522+00:00", "meta": {"OBJECT_NAME": "COSMOS 2251 DEB", "OBJECT_ID": "1993-036APR", "EPOCH": "2025-12-13T07:21:29.670624", "MEAN_MOTION": 14.54226359, "ECCENTRICITY": 0.00960278, "INCLINATION": 74.06, "RA_OF_ASC_NODE": 315.4395, "ARG_OF_PERICENTER": 0.0883, "MEAN_ANOMALY": 0.0279, "EPHEMERIS_TYPE": 0, "CLASSIFICATION_TYPE": "U", "NORAD_CAT_ID": 35674, "ELEMENT_SET_NO": 999, "REV_AT_EPOCH": 86119, "BSTAR": 0.0032808477, "MEAN_MOTION_DOT": 0.0001478, "MEAN_MOTION_DDOT": 0}, "tle": {"line1": "1 35674U 93036APR 25347.30659341  .00014780  00000+0  32808-2 0  9990", "line2": "2 35674  74.0600 315.4395 0096027   0.0883   0.0279 14.54226359861191"}}, "geometry": {"type": "Point", "coordinates": [156.7893974034453, -56.384446369748666]}}, {"type": "Feature", "properties": {"norad_id": 35701, "name": "COSMOS 2251 DEB", "group": "cosmos-2251-debris", "lat": -1.742319659154283, "lon": 118.26720644155012, "alt_km": 787.6286673205577, "timestamp": "2025-12-15T11:38:37.548535+00:00", "meta": {"OBJECT_NAME": "COSMOS 2251 DEB", "OBJECT_ID": "1993-036APW", "EPOCH": "2025-12-06T05:57:57.623904", "MEAN_MOTION": 13.80843435, "ECCENTRICITY": 0.02897209, "INCLINATION": 74.0028, "RA_OF_ASC_NODE": 313.2955, "ARG_OF_PERICENTER": 164.0681, "MEAN_ANOMALY": 196.98, "EPHEMERIS_TYPE": 0, "CLASSIFICATION_TYPE": "U", "NORAD_CAT_ID": 35701, "ELEMENT_SET_NO": 999, "REV_AT_EPOCH": 62069, "BSTAR": 0.0021223911, "MEAN_MOTION_DOT": 3.05e-05, "MEAN_MOTION_DDOT": 0}, "tle": {"line1": "1 35701U 93036APW 25340.24858361  .00003050  00000+0  21224-2 0  9998", "line2": "2 35701  74.0028 313.2955 0289720 164.0681 196.9800 13.80843435620696"}}, "geometry": {"type": "Point", "coordinates": [118.26720644155012, -1.742319659154283]}}]}